<?xml version="1.0" encoding="UTF-8"?>
<ndm xmlns:xsi="http://www.w3.org/2001/XMLSchema-instance" xsi:noNamespaceSchemaLocation="https://sanaregistry.org/r/ndmxml_unqualified/ndmxml-2.0.0-master-2.0.xsd">
<omm id="CCSDS_OMM_VERS" version="2.0">
<header><CREATION_DATE/><ORIGINATOR/></header><body><segment><metadata><OBJECT_NAME>ONEWEB-0020</OBJECT_NAME><OBJECT_ID>2020-008C</OBJECT_ID><CENTER_NAME>EARTH</CENTER_NAME><REF_FRAME>TEME</REF_FRAME><TIME_SYSTEM>UTC</TIME_SYSTEM><MEAN_ELEMENT_THEORY>SGP4</MEAN_ELEMENT_THEORY></metadata><data><meanElements><EPOCH>2023-11-26T17:28:14.474784</EPOCH><MEAN_MOTION>13.10370028</MEAN_MOTION><ECCENTRICITY>.000163</ECCENTRICITY><INCLINATION>87.8926</INCLINATION><RA_OF_ASC_NODE>221.6446</RA_OF_ASC_NODE><ARG_OF_PERICENTER>80.9591</ARG_OF_PERICENTER><MEAN_ANOMALY>279.1720</MEAN_ANOMALY></meanElements><tleParameters><EPHEMERIS_TYPE>0</EPHEMERIS_TYPE><CLASSIFICATION_TYPE>U</CLASSIFICATION_TYPE><NORAD_CAT_ID>45133</NORAD_CAT_ID><ELEMENT_SET_NO>999</ELEMENT_SET_NO><REV_AT_EPOCH>18609</REV_AT_EPOCH><BSTAR>-.15123E-2</BSTAR><MEAN_MOTION_DOT>-.515E-5</MEAN_MOTION_DOT><MEAN_MOTION_DDOT>0</MEAN_MOTION_DDOT></tleParameters></data></segment></body></omm>
<omm id="CCSDS_OMM_VERS" version="2.0">
<header><CREATION_DATE/><ORIGINATOR/></header><body><segment><metadata><OBJECT_NAME>ONEWEB-0021</OBJECT_NAME><OBJECT_ID>2020-008D</OBJECT_ID><CENTER_NAME>EARTH</CENTER_NAME><REF_FRAME>TEME</REF_FRAME><TIME_SYSTEM>UTC</TIME_SYSTEM><MEAN_ELEMENT_THEORY>SGP4</MEAN_ELEMENT_THEORY></metadata><data><meanElements><EPOCH>2023-11-26T17:49:18.157728</EPOCH><MEAN_MOTION>13.10369454</MEAN_MOTION><ECCENTRICITY>.0001523</ECCENTRICITY><INCLINATION>87.8931</INCLINATION><RA_OF_ASC_NODE>221.6474</RA_OF_ASC_NODE><ARG_OF_PERICENTER>70.8977</ARG_OF_PERICENTER><MEAN_ANOMALY>289.2315</MEAN_ANOMALY></meanElements><tleParameters><EPHEMERIS_TYPE>0</EPHEMERIS_TYPE><CLASSIFICATION_TYPE>U</CLASSIFICATION_TYPE><NORAD_CAT_ID>45134</NORAD_CAT_ID><ELEMENT_SET_NO>999</ELEMENT_SET_NO><REV_AT_EPOCH>18640</REV_AT_EPOCH><BSTAR>-.88354E-3</BSTAR><MEAN_MOTION_DOT>-.296E-5</MEAN_MOTION_DOT><MEAN_MOTION_DDOT>0</MEAN_MOTION_DDOT></tleParameters></data></segment></body></omm>
<omm id="CCSDS_OMM_VERS" version="2.0">
<header><CREATION_DATE/><ORIGINATOR/></header><body><segment><metadata><OBJECT_NAME>ONEWEB-0022</OBJECT_NAME><OBJECT_ID>2020-008E</OBJECT_ID><CENTER_NAME>EARTH</CENTER_NAME><REF_FRAME>TEME</REF_FRAME><TIME_SYSTEM>UTC</TIME_SYSTEM><MEAN_ELEMENT_THEORY>SGP4</MEAN_ELEMENT_THEORY></metadata><data><meanElements><EPOCH>2023-11-26T18:24:32.394240</EPOCH><MEAN_MOTION>13.10389335</MEAN_MOTION><ECCENTRICITY>.000179</ECCENTRICITY><INCLINATION>87.8931</INCLINATION><RA_OF_ASC_NODE>221.6611</RA_OF_ASC_NODE><ARG_OF_PERICENTER>91.9642</ARG_OF_PERICENTER><MEAN_ANOMALY>268.1690</MEAN_ANOMALY></meanElements><tleParameters><EPHEMERIS_TYPE>0</EPHEMERIS_TYPE><CLASSIFICATION_TYPE>U</CLASSIFICATION_TYPE><NORAD_CAT_ID>45135</NORAD_CAT_ID><ELEMENT_SET_NO>999</ELEMENT_SET_NO><REV_AT_EPOCH>18610</REV_AT_EPOCH><BSTAR>.21239E-2</BSTAR><MEAN_MOTION_DOT>.754E-5</MEAN_MOTION_DOT><MEAN_MOTION_DDOT>0</MEAN_MOTION_DDOT></tleParameters></data></segment></body></omm>
<omm id="CCSDS_OMM_VERS" version="2.0">
<header><CREATION_DATE/><ORIGINATOR/></header><body><segment><metadata><OBJECT_NAME>ONEWEB-0023</OBJECT_NAME><OBJECT_ID>2020-008F</OBJECT_ID><CENTER_NAME>EARTH</CENTER_NAME><REF_FRAME>TEME</REF_FRAME><TIME_SYSTEM>UTC</TIME_SYSTEM><MEAN_ELEMENT_THEORY>SGP4</MEAN_ELEMENT_THEORY></metadata><data><meanElements><EPOCH>2023-11-26T18:08:03.368256</EPOCH><MEAN_MOTION>13.10375616</MEAN_MOTION><ECCENTRICITY>.0002097</ECCENTRICITY><INCLINATION>87.8932</INCLINATION><RA_OF_ASC_NODE>221.6374</RA_OF_ASC_NODE><ARG_OF_PERICENTER>68.0738</ARG_OF_PERICENTER><MEAN_ANOMALY>292.0612</MEAN_ANOMALY></meanElements><tleParameters><EPHEMERIS_TYPE>0</EPHEMERIS_TYPE><CLASSIFICATION_TYPE>U</CLASSIFICATION_TYPE><NORAD_CAT_ID>45136</NORAD_CAT_ID><ELEMENT_SET_NO>999</ELEMENT_SET_NO><REV_AT_EPOCH>18583</REV_AT_EPOCH><BSTAR>.94622E-3</BSTAR><MEAN_MOTION_DOT>.343E-5</MEAN_MOTION_DOT><MEAN_MOTION_DDOT>0</MEAN_MOTION_DDOT></tleParameters></data></segment></body></omm>
<omm id="CCSDS_OMM_VERS" version="2.0">
<header><CREATION_DATE/><ORIGINATOR/></header><body><segment><metadata><OBJECT_NAME>ONEWEB-0024</OBJECT_NAME><OBJECT_ID>2020-008G</OBJECT_ID><CENTER_NAME>EARTH</CENTER_NAME><REF_FRAME>TEME</REF_FRAME><TIME_SYSTEM>UTC</TIME_SYSTEM><MEAN_ELEMENT_THEORY>SGP4</MEAN_ELEMENT_THEORY></metadata><data><meanElements><EPOCH>2023-11-26T17:25:56.085312</EPOCH><MEAN_MOTION>13.10369087</MEAN_MOTION><ECCENTRICITY>.0001371</ECCENTRICITY><INCLINATION>87.8916</INCLINATION><RA_OF_ASC_NODE>221.6515</RA_OF_ASC_NODE><ARG_OF_PERICENTER>76.1710</ARG_OF_PERICENTER><MEAN_ANOMALY>283.9570</MEAN_ANOMALY></meanElements><tleParameters><EPHEMERIS_TYPE>0</EPHEMERIS_TYPE><CLASSIFICATION_TYPE>U</CLASSIFICATION_TYPE><NORAD_CAT_ID>45137</NORAD_CAT_ID><ELEMENT_SET_NO>999</ELEMENT_SET_NO><REV_AT_EPOCH>18599</REV_AT_EPOCH><BSTAR>-.1418E-2</BSTAR><MEAN_MOTION_DOT>-.482E-5</MEAN_MOTION_DOT><MEAN_MOTION_DDOT>0</MEAN_MOTION_DDOT></tleParameters></data></segment></body></omm>
<omm id="CCSDS_OMM_VERS" version="2.0">
<header><CREATION_DATE/><ORIGINATOR/></header><body><segment><metadata><OBJECT_NAME>ONEWEB-0025</OBJECT_NAME><OBJECT_ID>2020-008H</OBJECT_ID><CENTER_NAME>EARTH</CENTER_NAME><REF_FRAME>TEME</REF_FRAME><TIME_SYSTEM>UTC</TIME_SYSTEM><MEAN_ELEMENT_THEORY>SGP4</MEAN_ELEMENT_THEORY></metadata><data><meanElements><EPOCH>2023-11-26T17:51:38.096352</EPOCH><MEAN_MOTION>13.10370779</MEAN_MOTION><ECCENTRICITY>.0001571</ECCENTRICITY><INCLINATION>87.8918</INCLINATION><RA_OF_ASC_NODE>221.6474</RA_OF_ASC_NODE><ARG_OF_PERICENTER>65.4809</ARG_OF_PERICENTER><MEAN_ANOMALY>294.6482</MEAN_ANOMALY></meanElements><tleParameters><EPHEMERIS_TYPE>0</EPHEMERIS_TYPE><CLASSIFICATION_TYPE>U</CLASSIFICATION_TYPE><NORAD_CAT_ID>45138</NORAD_CAT_ID><ELEMENT_SET_NO>999</ELEMENT_SET_NO><REV_AT_EPOCH>18632</REV_AT_EPOCH><BSTAR>-.73234E-3</BSTAR><MEAN_MOTION_DOT>-.243E-5</MEAN_MOTION_DOT><MEAN_MOTION_DDOT>0</MEAN_MOTION_DDOT></tleParameters></data></segment></body></omm>
<omm id="CCSDS_OMM_VERS" version="2.0">
<header><CREATION_DATE/><ORIGINATOR/></header><body><segment><metadata><OBJECT_NAME>ONEWEB-0026</OBJECT_NAME><OBJECT_ID>2020-008J</OBJECT_ID><CENTER_NAME>EARTH</CENTER_NAME><REF_FRAME>TEME</REF_FRAME><TIME_SYSTEM>UTC</TIME_SYSTEM><MEAN_ELEMENT_THEORY>SGP4</MEAN_ELEMENT_THEORY></metadata><data><meanElements><EPOCH>2023-11-26T17:49:43.027104</EPOCH><MEAN_MOTION>13.11158841</MEAN_MOTION><ECCENTRICITY>.0002305</ECCENTRICITY><INCLINATION>87.8990</INCLINATION><RA_OF_ASC_NODE>206.5311</RA_OF_ASC_NODE><ARG_OF_PERICENTER>101.5087</ARG_OF_PERICENTER><MEAN_ANOMALY>258.6300</MEAN_ANOMALY></meanElements><tleParameters><EPHEMERIS_TYPE>0</EPHEMERIS_TYPE><CLASSIFICATION_TYPE>U</CLASSIFICATION_TYPE><NORAD_CAT_ID>45139</NORAD_CAT_ID><ELEMENT_SET_NO>999</ELEMENT_SET_NO><REV_AT_EPOCH>18876</REV_AT_EPOCH><BSTAR>-.3229E+0</BSTAR><MEAN_MOTION_DOT>-.112623E-2</MEAN_MOTION_DOT><MEAN_MOTION_DDOT>0</MEAN_MOTION_DDOT></tleParameters></data></segment></body></omm>
<omm id="CCSDS_OMM_VERS" version="2.0">
<header><CREATION_DATE/><ORIGINATOR/></header><body><segment><metadata><OBJECT_NAME>ONEWEB-0028</OBJECT_NAME><OBJECT_ID>2020-008K</OBJECT_ID><CENTER_NAME>EARTH</CENTER_NAME><REF_FRAME>TEME</REF_FRAME><TIME_SYSTEM>UTC</TIME_SYSTEM><MEAN_ELEMENT_THEORY>SGP4</MEAN_ELEMENT_THEORY></metadata><data><meanElements><EPOCH>2023-11-26T16:45:36.486144</EPOCH><MEAN_MOTION>13.11420964</MEAN_MOTION><ECCENTRICITY>.0001682</ECCENTRICITY><INCLINATION>87.8992</INCLINATION><RA_OF_ASC_NODE>206.5861</RA_OF_ASC_NODE><ARG_OF_PERICENTER>51.6410</ARG_OF_PERICENTER><MEAN_ANOMALY>308.4869</MEAN_ANOMALY></meanElements><tleParameters><EPHEMERIS_TYPE>0</EPHEMERIS_TYPE><CLASSIFICATION_TYPE>U</CLASSIFICATION_TYPE><NORAD_CAT_ID>45140</NORAD_CAT_ID><ELEMENT_SET_NO>999</ELEMENT_SET_NO><REV_AT_EPOCH>18627</REV_AT_EPOCH><BSTAR>-.10549E-2</BSTAR><MEAN_MOTION_DOT>-.361E-5</MEAN_MOTION_DOT><MEAN_MOTION_DDOT>0</MEAN_MOTION_DDOT></tleParameters></data></segment></body></omm>

</ndm>
