ONEWEB-0020             
1 45133U 20008C   23330.72794531 -.00000515  00000+0 -15123-2 0  9991
2 45133  87.8926 221.6446 0001630  80.9591 279.1720 13.10370028186092
ONEWEB-0021             
1 45134U 20008D   23330.74257127 -.00000296  00000+0 -88354-3 0  9992
2 45134  87.8931 221.6474 0001523  70.8977 289.2315 13.10369454186405
ONEWEB-0022             
1 45135U 20008E   23330.76704160  .00000754  00000+0  21239-2 0  9994
2 45135  87.8931 221.6611 0001790  91.9642 268.1690 13.10389335186107
ONEWEB-0023             
1 45136U 20008F   23330.75559454  .00000343  00000+0  94622-3 0  9999
2 45136  87.8932 221.6374 0002097  68.0738 292.0612 13.10375616185833
ONEWEB-0024             
1 45137U 20008G   23330.72634358 -.00000482  00000+0 -14180-2 0  9990
2 45137  87.8916 221.6515 0001371  76.1710 283.9570 13.10369087185991
ONEWEB-0025             
1 45138U 20008H   23330.74419093 -.00000243  00000+0 -73234-3 0  9991
2 45138  87.8918 221.6474 0001571  65.4809 294.6482 13.10370779186329
ONEWEB-0026             
1 45139U 20008J   23330.74285911 -.00112623  00000+0 -32290+0 0  9991
2 45139  87.8990 206.5311 0002305 101.5087 258.6300 13.11158841188762
ONEWEB-0028             
1 45140U 20008K   23330.69833896 -.00000361  00000+0 -10549-2 0  9999
2 45140  87.8992 206.5861 0001682  51.6410 308.4869 13.11420964186274
